[ {"name": "STARLINK-32318", "line1": "1 61864U 24202V   26191.22057677 -.00000584  00000+0 -11714-4 0  9996", "line2": "2 61864  42.9995 266.3015 0001417 255.6216 104.4479 15.27575832 94072"}, {"name": "STARLINK-32401", "line1": "1 61865U 24202W   26191.55136213  .00000530  00000+0  28782-4 0  9999", "line2": "2 61865  42.9993 264.4813 0001572 266.5066  93.5606 15.27583654 94129"}, {"name": "STARLINK-32588", "line1": "1 61866U 24202X   26192.65651502  .00000065  00000+0  11874-4 0  9992", "line2": "2 61866  42.9998 258.1579 0001321 248.5313 111.5398 15.27579696 94299"}, {"name": "STARLINK-32569", "line1": "1 61867U 24202Y   26192.20909118 -.00000008  00000+0  92492-5 0  9997", "line2": "2 61867  43.0019 260.8196 0001932 288.2360  71.8281 15.27573901 94227"}, {"name": "STARLINK-11402 [DTC]", "line1": "1 61874U 24204A   26192.16778674 -.00000916  00000+0 -27151-5 0  9992", "line2": "2 61874  53.1589 107.9246 0000351 163.8583 196.2446 15.69700109 96893"}, {"name": "STARLINK-11316 [DTC]", "line1": "1 61875U 24204B   26192.17258742  .00000013  00000+0  49776-5 0  9996", "line2": "2 61875  53.1575 107.1995 0001591  96.6758 263.4441 15.69686286 96314"}, {"name": "STARLINK-11321 [DTC]", "line1": "1 61877U 24204D   26192.15797477 -.00001065  00000+0 -39173-5 0  9999", "line2": "2 61877  53.1607 107.8382 0002191  67.9890 292.1361 15.69709274 96294"}, {"name": "STARLINK-11314 [DTC]", "line1": "1 61878U 24204E   26191.96206507 -.00000033  00000+0  45934-5 0  9992", "line2": "2 61878  53.1598 108.7449 0001664  82.3523 277.7684 15.69704026 96271"}, {"name": "STARLINK-11324 [DTC]", "line1": "1 61879U 24204F   26191.19312694 -.00001250  00000+0 -54548-5 0  9997", "line2": "2 61879  53.1599 112.4801 0001482  75.0505 285.0677 15.69701928 96153"}, {"name": "STARLINK-11328 [DTC]", "line1": "1 61880U 24204G   26192.14325895  .00000261  00000+0  70109-5 0  9992", "line2": "2 61880  53.1589 107.7393 0000980  72.9561 287.1564 15.69707595 96308"}, {"name": "STARLINK-11329 [DTC]", "line1": "1 61881U 24204H   26192.32939938 -.00007410  00000+0 -56473-4 0  9994", "line2": "2 61881  53.1596 106.7636 0001760  70.1142 290.0065 15.69658647 96333"}, {"name": "STARLINK-11398 [DTC]", "line1": "1 61882U 24204J   26190.98739875 -.00000974  00000+0 -31801-5 0  9990", "line2": "2 61882  53.1588 113.3218 0001359  73.9489 286.1678 15.69704180 96121"}, {"name": "STARLINK-11383 [DTC]", "line1": "1 61883U 24204K   26191.16860156  .00000105  00000+0  57272-5 0  9993", "line2": "2 61883  53.1598 112.3139 0001266 117.0125 243.1022 15.69701239 96159"}, {"name": "STARLINK-11359 [DTC]", "line1": "1 61884U 24204L   26192.19220311 -.00001030  00000+0 -36429-5 0  9992", "line2": "2 61884  53.1589 107.3252 0000980 105.7889 254.3237 15.69712417 96313"}, {"name": "STARLINK-11301 [DTC]", "line1": "1 61885U 24204M   26189.95396734 -.00000498  00000+0  75658-6 0  9990", "line2": "2 61885  53.1593 118.2440 0001775  82.6918 277.4301 15.69707766 95967"}, {"name": "STARLINK-11351 [DTC]", "line1": "1 61886U 24204N   26189.94906413  .00001627  00000+0  18286-4 0  9997", "line2": "2 61886  53.1588 118.2125 0001173 104.3652 255.7497 15.69709978 95963"}, {"name": "STARLINK-32410", "line1": "1 61887U 24204P   26192.48010590 -.00004032  00000+0 -10826-3 0  9999", "line2": "2 61887  53.1591 269.7374 0001467  94.6063 265.5108 15.34398163 94081"}, {"name": "STARLINK-32377", "line1": "1 61888U 24204Q   26192.47800421  .00010101  00000+0  30966-3 0  9998", "line2": "2 61888  53.1581 269.7215 0001549  73.0446 287.0726 15.34400944 94077"}, {"name": "STARLINK-32292", "line1": "1 61889U 24204R   26192.49062101 -.00003788  00000+0 -10100-3 0  9999", "line2": "2 61889  53.1602 269.7968 0001627 111.2825 248.8352 15.34410091 94085"}, {"name": "STARLINK-32501", "line1": "1 61890U 24204S   26191.26776779  .00000289  00000+0  19695-4 0  9998", "line2": "2 61890  53.1602 275.6804 0001519  88.9046 271.2131 15.34393607 93893"}, {"name": "STARLINK-32383", "line1": "1 61891U 24204T   26192.69443407 -.00001474  00000+0 -32501-4 0  9996", "line2": "2 61891  53.1577 268.9349 0001191  74.0814 286.0320 15.34406196 94117"}, {"name": "STARLINK-32239", "line1": "1 61892U 24204U   26192.56886059  .00002332  00000+0  80153-4 0  9995", "line2": "2 61892  53.1586 270.9925 0001589 101.4879 258.6302 15.34395967 94071"}, {"name": "STARLINK-32489", "line1": "1 61893U 24204V   26192.53683067 -.00002329  00000+0 -57841-4 0  9993", "line2": "2 61893  53.1594 269.3816 0001030  40.7536 319.3544 15.34387956 94081"}]