OBJECT_NAME,OBJECT_ID,EPOCH,MEAN_MOTION,ECCENTRICITY,INCLINATION,RA_OF_ASC_NODE,ARG_OF_PERICENTER,MEAN_ANOMALY,EPHEMERIS_TYPE,CLASSIFICATION_TYPE,NORAD_CAT_ID,ELEMENT_SET_NO,REV_AT_EPOCH,BSTAR,MEAN_MOTION_DOT,MEAN_MOTION_DDOT
STARLINK-32318,2024-202V,2026-07-10T05:17:37.832928,15.27575832,.00014179,42.9995,266.3015,255.6216,104.4479,0,U,61864,999,9407,-.11713569E-4,-.584E-5,0
STARLINK-32401,2024-202W,2026-07-10T13:13:57.688032,15.27583654,.0001572,42.9993,264.4813,266.5066,93.5606,0,U,61865,999,9412,.28782E-4,.53E-5,0
STARLINK-32588,2024-202X,2026-07-11T15:45:22.897728,15.27579696,.00013213,42.9998,258.1579,248.5313,111.5398,0,U,61866,999,9429,.11873614E-4,.65E-6,0
STARLINK-32569,2024-202Y,2026-07-11T05:01:05.477952,15.27573901,.00019326,43.0019,260.8196,288.2360,71.8281,0,U,61867,999,9422,.9249244E-5,-.8E-7,0
STARLINK-11402 [DTC],2024-204A,2026-07-11T04:01:36.774336,15.69700109,.00003518,53.1589,107.9246,163.8583,196.2446,0,U,61874,999,9689,-.2715148E-5,-.916E-5,0
STARLINK-11316 [DTC],2024-204B,2026-07-11T04:08:31.553088,15.69686286,.00015916,53.1575,107.1995,96.6758,263.4441,0,U,61875,999,9631,.497764E-5,.13E-6,0
STARLINK-11321 [DTC],2024-204D,2026-07-11T03:47:29.020128,15.69709274,.00021919,53.1607,107.8382,67.9890,292.1361,0,U,61877,999,9629,-.3917306E-5,-.1065E-4,0
STARLINK-11314 [DTC],2024-204E,2026-07-10T23:05:22.422048,15.69704026,.00016645,53.1598,108.7449,82.3523,277.7684,0,U,61878,999,9627,.4593373E-5,-.33E-6,0
STARLINK-11324 [DTC],2024-204F,2026-07-10T04:38:06.167616,15.69701928,.00014822,53.1599,112.4801,75.0505,285.0677,0,U,61879,999,9615,-.5454771E-5,-.125E-4,0
STARLINK-11328 [DTC],2024-204G,2026-07-11T03:26:17.573280,15.69707595,.00009801,53.1589,107.7393,72.9561,287.1564,0,U,61880,999,9630,.7010947E-5,.261E-5,0
STARLINK-11329 [DTC],2024-204H,2026-07-11T07:54:20.106432,15.69658647,.000176,53.1596,106.7636,70.1142,290.0065,0,U,61881,999,9633,-.56472644E-4,-.741E-4,0
STARLINK-11398 [DTC],2024-204J,2026-07-09T23:41:51.252000,15.69704180,.0001359,53.1588,113.3218,73.9489,286.1678,0,U,61882,999,9612,-.3180144E-5,-.974E-5,0
STARLINK-11383 [DTC],2024-204K,2026-07-10T04:02:47.174784,15.69701239,.00012667,53.1598,112.3139,117.0125,243.1022,0,U,61883,999,9615,.5727192E-5,.105E-5,0
STARLINK-11359 [DTC],2024-204L,2026-07-11T04:36:46.348704,15.69712417,.00009808,53.1589,107.3252,105.7889,254.3237,0,U,61884,999,9631,-.3642937E-5,-.103E-4,0
STARLINK-11301 [DTC],2024-204M,2026-07-08T22:53:42.778176,15.69707766,.00017755,53.1593,118.2440,82.6918,277.4301,0,U,61885,999,9596,.756584E-6,-.498E-5,0
STARLINK-11351 [DTC],2024-204N,2026-07-08T22:46:39.140832,15.69709978,.0001173,53.1588,118.2125,104.3652,255.7497,0,U,61886,999,9596,.18285719E-4,.1627E-4,0
STARLINK-32410,2024-204P,2026-07-11T11:31:21.149760,15.34398163,.00014679,53.1591,269.7374,94.6063,265.5108,0,U,61887,999,9408,-.10826127E-3,-.4032E-4,0
STARLINK-32377,2024-204Q,2026-07-11T11:28:19.563744,15.34400944,.00015491,53.1581,269.7215,73.0446,287.0726,0,U,61888,999,9407,.30966188E-3,.10101E-3,0
STARLINK-32292,2024-204R,2026-07-11T11:46:29.655264,15.34410091,.00016274,53.1602,269.7968,111.2825,248.8352,0,U,61889,999,9408,-.10099736E-3,-.3788E-4,0
STARLINK-32501,2024-204S,2026-07-10T06:25:35.137056,15.34393607,.00015198,53.1602,275.6804,88.9046,271.2131,0,U,61890,999,9389,.19694704E-4,.289E-5,0
STARLINK-32383,2024-204T,2026-07-11T16:39:59.103648,15.34406196,.00011917,53.1577,268.9349,74.0814,286.0320,0,U,61891,999,9411,-.32501179E-4,-.1474E-4,0
STARLINK-32239,2024-204U,2026-07-11T13:39:09.554976,15.34395967,.00015894,53.1586,270.9925,101.4879,258.6302,0,U,61892,999,9407,.80152647E-4,.2332E-4,0
STARLINK-32489,2024-204V,2026-07-11T12:53:02.169888,15.34387956,.00010302,53.1594,269.3816,40.7536,319.3544,0,U,61893,999,9408,-.5784115E-4,-.2329E-4,0
